HAWK-10A                
1 60540U 24149CA  26068.79979252  .00002135  00000+0  19454-3 0  9993
2 60540  97.6943 146.4192 0004333  57.1994 302.9645 14.96174213 85123
STARLINK-33993          
1 63949U 25098Z   26068.80554868 -.00087772  00000+0 -74293-2 0  9990
2 63949  70.0003 273.9954 0002378 281.9857  78.1036 14.98390673 46579
